{"type": "FeatureCollection", "features": [ {"type": "Feature", "properties": {"norad_id": 66985, "name": "STARLINK-36103", "group": "last-30-days", "lat": 35.10898549417602, "lon": -106.07958159689782, "alt_km": 318.22856353937186, "timestamp": "2025-12-19T22:41:51.099072+00:00", "meta": {"OBJECT_NAME": "STARLINK-36103", "OBJECT_ID": "2025-288AC", "EPOCH": "2025-12-19T16:07:33.151008", "MEAN_MOTION": 15.83189138, "ECCENTRICITY": 0.0002779, "INCLINATION": 43.0015, "RA_OF_ASC_NODE": 124.5782, "ARG_OF_PERICENTER": 265.4698, "MEAN_ANOMALY": 94.5857, "EPHEMERIS_TYPE": 0, "CLASSIFICATION_TYPE": "U", "NORAD_CAT_ID": 66985, "ELEMENT_SET_NO": 999, "REV_AT_EPOCH": 294, "BSTAR": -0.0025572, "MEAN_MOTION_DOT": -0.00536142, "MEAN_MOTION_DDOT": 0}, "tle": {"line1": "1 66985U 25288AC  25353.67191147 -.00536142  00000+0 -25572-2 0  9998", "line2": "2 66985  43.0015 124.5782 0002779 265.4698  94.5857 15.83189138  2943"}}, "geometry": {"type": "Point", "coordinates": [-106.07958159689782, 35.10898549417602]}}, {"type": "Feature", "properties": {"norad_id": 66986, "name": "STARLINK-36135", "group": "last-30-days", "lat": 34.031363167251605, "lon": -103.5527009283262, "alt_km": 318.40376573960566, "timestamp": "2025-12-19T22:41:51.099082+00:00", "meta": {"OBJECT_NAME": "STARLINK-36135", "OBJECT_ID": "2025-288AD", "EPOCH": "2025-12-19T16:06:57.424608", "MEAN_MOTION": 15.83176247, "ECCENTRICITY": 0.0002752, "INCLINATION": 43.001, "RA_OF_ASC_NODE": 124.5737, "ARG_OF_PERICENTER": 266.3902, "MEAN_ANOMALY": 93.6656, "EPHEMERIS_TYPE": 0, "CLASSIFICATION_TYPE": "U", "NORAD_CAT_ID": 66986, "ELEMENT_SET_NO": 999, "REV_AT_EPOCH": 294, "BSTAR": -0.0025748, "MEAN_MOTION_DOT": -0.00539297, "MEAN_MOTION_DDOT": 0}, "tle": {"line1": "1 66986U 25288AD  25353.67149797 -.00539297  00000+0 -25748-2 0  9992", "line2": "2 66986  43.0010 124.5737 0002752 266.3902  93.6656 15.83176247  2942"}}, "geometry": {"type": "Point", "coordinates": [-103.5527009283262, 34.031363167251605]}}, {"type": "Feature", "properties": {"norad_id": 66987, "name": "STARLINK-36147", "group": "last-30-days", "lat": 32.96201956428784, "lon": -101.21128791248397, "alt_km": 318.5755217274418, "timestamp": "2025-12-19T22:41:51.099092+00:00", "meta": {"OBJECT_NAME": "STARLINK-36147", "OBJECT_ID": "2025-288AE", "EPOCH": "2025-12-19T16:06:23.892768", "MEAN_MOTION": 15.83181314, "ECCENTRICITY": 0.0002682, "INCLINATION": 43.0016, "RA_OF_ASC_NODE": 124.5713, "ARG_OF_PERICENTER": 272.6474, "MEAN_ANOMALY": 87.4092, "EPHEMERIS_TYPE": 0, "CLASSIFICATION_TYPE": "U", "NORAD_CAT_ID": 66987, "ELEMENT_SET_NO": 999, "REV_AT_EPOCH": 294, "BSTAR": -0.0024982, "MEAN_MOTION_DOT": -0.00524262, "MEAN_MOTION_DDOT": 0}, "tle": {"line1": "1 66987U 25288AE  25353.67110987 -.00524262  00000+0 -24982-2 0  9997", "line2": "2 66987  43.0016 124.5713 0002682 272.6474  87.4092 15.83181314  2945"}}, "geometry": {"type": "Point", "coordinates": [-101.21128791248397, 32.96201956428784]}}, {"type": "Feature", "properties": {"norad_id": 66988, "name": "YAOGAN-47", "group": "last-30-days", "lat": -62.2032445843214, "lon": -135.44464113612145, "alt_km": 503.90152698681504, "timestamp": "2025-12-19T22:41:51.099108+00:00", "meta": {"OBJECT_NAME": "YAOGAN-47", "OBJECT_ID": "2025-289A", "EPOCH": "2025-12-15T02:32:19.481856", "MEAN_MOTION": 15.23184629, "ECCENTRICITY": 7.87e-05, "INCLINATION": 97.5271, "RA_OF_ASC_NODE": 54.2297, "ARG_OF_PERICENTER": 67.3408, "MEAN_ANOMALY": 292.7912, "EPHEMERIS_TYPE": 0, "CLASSIFICATION_TYPE": "U", "NORAD_CAT_ID": 66988, "ELEMENT_SET_NO": 999, "REV_AT_EPOCH": 90, "BSTAR": 0.00011849353, "MEAN_MOTION_DOT": 2.729e-05, "MEAN_MOTION_DDOT": 0}, "tle": {"line1": "1 66988U 25289A   25349.10578104  .00002729  00000+0  11849-3 0  9997", "line2": "2 66988  97.5271  54.2297 0000787  67.3408 292.7912 15.23184629   901"}}, "geometry": {"type": "Point", "coordinates": [-135.44464113612145, -62.2032445843214]}}, {"type": "Feature", "properties": {"norad_id": 66989, "name": "CZ-4B R/B", "group": "last-30-days", "lat": 42.86923820421603, "lon": -113.13554754075324, "alt_km": 449.8982314292916, "timestamp": "2025-12-19T22:41:51.099118+00:00", "meta": {"OBJECT_NAME": "CZ-4B R/B", "OBJECT_ID": "2025-289B", "EPOCH": "2025-12-19T19:03:19.184256", "MEAN_MOTION": 15.68896967, "ECCENTRICITY": 0.0143702, "INCLINATION": 97.5256, "RA_OF_ASC_NODE": 59.6524, "ARG_OF_PERICENTER": 336.203, "MEAN_ANOMALY": 23.2628, "EPHEMERIS_TYPE": 0, "CLASSIFICATION_TYPE": "U", "NORAD_CAT_ID": 66989, "ELEMENT_SET_NO": 999, "REV_AT_EPOCH": 167, "BSTAR": 0.00048129, "MEAN_MOTION_DOT": 0.00099944, "MEAN_MOTION_DDOT": 5.1169e-06}, "tle": {"line1": "1 66989U 25289B   25353.79397204  .00099944  51169-5  48129-3 0  9992", "line2": "2 66989  97.5256  59.6524 0143702 336.2030  23.2628 15.68896967  1671"}}, "geometry": {"type": "Point", "coordinates": [-113.13554754075324, 42.86923820421603]}}, {"type": "Feature", "properties": {"norad_id": 66990, "name": "TJS-22", "group": "last-30-days", "lat": -0.9899662914556113, "lon": 135.6509254096271, "alt_km": 35796.08168735081, "timestamp": "2025-12-19T22:41:51.099130+00:00", "meta": {"OBJECT_NAME": "TJS-22", "OBJECT_ID": "2025-290A", "EPOCH": "2025-12-19T08:44:04.517952", "MEAN_MOTION": 1.0027061, "ECCENTRICITY": 0.0003443, "INCLINATION": 1.9721, "RA_OF_ASC_NODE": 285.0138, "ARG_OF_PERICENTER": 341.5973, "MEAN_ANOMALY": 19.0842, "EPHEMERIS_TYPE": 0, "CLASSIFICATION_TYPE": "U", "NORAD_CAT_ID": 66990, "ELEMENT_SET_NO": 999, "REV_AT_EPOCH": 22, "BSTAR": 0, "MEAN_MOTION_DOT": 2e-07, "MEAN_MOTION_DDOT": 0}, "tle": {"line1": "1 66990U 25290A   25353.36394118  .00000020  00000+0  00000+0 0  9991", "line2": "2 66990   1.9721 285.0138 0003443 341.5973  19.0842  1.00270610   220"}}, "geometry": {"type": "Point", "coordinates": [135.6509254096271, -0.9899662914556113]}}, {"type": "Feature", "properties": {"norad_id": 66991, "name": "CZ-3B R/B", "group": "last-30-days", "lat": 4.185410605932863, "lon": -53.45488745948418, "alt_km": 34168.13350037161, "timestamp": "2025-12-19T22:41:51.099142+00:00", "meta": {"OBJECT_NAME": "CZ-3B R/B", "OBJECT_ID": "2025-290B", "EPOCH": "2025-12-15T17:23:33.043200", "MEAN_MOTION": 2.38388611, "ECCENTRICITY": 0.7240884, "INCLINATION": 28.4636, "RA_OF_ASC_NODE": 300.4666, "ARG_OF_PERICENTER": 182.7002, "MEAN_ANOMALY": 168.625, "EPHEMERIS_TYPE": 0, "CLASSIFICATION_TYPE": "U", "NORAD_CAT_ID": 66991, "ELEMENT_SET_NO": 999, "REV_AT_EPOCH": 16, "BSTAR": 0.00075879, "MEAN_MOTION_DOT": 0.00057911, "MEAN_MOTION_DDOT": -2.0514e-07}, "tle": {"line1": "1 66991U 25290B   25349.72468800  .00057911 -20514-6  75879-3 0  9998", "line2": "2 66991  28.4636 300.4666 7240884 182.7002 168.6250  2.38388611   165"}}, "geometry": {"type": "Point", "coordinates": [-53.45488745948418, 4.185410605932863]}}, {"type": "Feature", "properties": {"norad_id": 66993, "name": "2025-292A", "group": "last-30-days", "lat": 57.734546640118175, "lon": -101.27590910180528, "alt_km": 552.8117386244285, "timestamp": "2025-12-19T22:41:51.099159+00:00", "meta": {"OBJECT_NAME": "2025-292A", "OBJECT_ID": "2025-292A", "EPOCH": "2025-12-19T15:46:26.340384", "MEAN_MOTION": 15.04542521, "ECCENTRICITY": 0.0013926, "INCLINATION": 97.6527, "RA_OF_ASC_NODE": 66.1417, "ARG_OF_PERICENTER": 246.7089, "MEAN_ANOMALY": 113.2671, "EPHEMERIS_TYPE": 0, "CLASSIFICATION_TYPE": "U", "NORAD_CAT_ID": 66993, "ELEMENT_SET_NO": 999, "REV_AT_EPOCH": 143, "BSTAR": 0.00019582, "MEAN_MOTION_DOT": 2.688e-05, "MEAN_MOTION_DDOT": 0}, "tle": {"line1": "1 66993U 25292A   25353.65724931  .00002688  00000+0  19582-3 0  9999", "line2": "2 66993  97.6527  66.1417 0013926 246.7089 113.2671 15.04542521  1431"}}, "geometry": {"type": "Point", "coordinates": [-101.27590910180528, 57.734546640118175]}}, {"type": "Feature", "properties": {"norad_id": 66994, "name": "2025-292B", "group": "last-30-days", "lat": 56.21929597603393, "lon": -101.97451029458414, "alt_km": 552.6113091211782, "timestamp": "2025-12-19T22:41:51.099170+00:00", "meta": {"OBJECT_NAME": "2025-292B", "OBJECT_ID": "2025-292B", "EPOCH": "2025-12-19T17:21:48.220992", "MEAN_MOTION": 15.04584285, "ECCENTRICITY": 0.0013701, "INCLINATION": 97.6535, "RA_OF_ASC_NODE": 66.2089, "ARG_OF_PERICENTER": 246.8176, "MEAN_ANOMALY": 113.1607, "EPHEMERIS_TYPE": 0, "CLASSIFICATION_TYPE": "U", "NORAD_CAT_ID": 66994, "ELEMENT_SET_NO": 999, "REV_AT_EPOCH": 144, "BSTAR": 0.00022914, "MEAN_MOTION_DOT": 3.159e-05, "MEAN_MOTION_DDOT": 0}, "tle": {"line1": "1 66994U 25292B   25353.72347478  .00003159  00000+0  22914-3 0  9992", "line2": "2 66994  97.6535  66.2089 0013701 246.8176 113.1607 15.04584285  1448"}}, "geometry": {"type": "Point", "coordinates": [-101.97451029458414, 56.21929597603393]}}, {"type": "Feature", "properties": {"norad_id": 66995, "name": "2025-292C", "group": "last-30-days", "lat": 55.79727873556424, "lon": -102.16201605303348, "alt_km": 552.6868229513229, "timestamp": "2025-12-19T22:41:51.099180+00:00", "meta": {"OBJECT_NAME": "2025-292C", "OBJECT_ID": "2025-292C", "EPOCH": "2025-12-19T17:21:41.529312", "MEAN_MOTION": 15.04610889, "ECCENTRICITY": 0.0014002, "INCLINATION": 97.6526, "RA_OF_ASC_NODE": 66.208, "ARG_OF_PERICENTER": 247.1937, "MEAN_ANOMALY": 112.781, "EPHEMERIS_TYPE": 0, "CLASSIFICATION_TYPE": "U", "NORAD_CAT_ID": 66995, "ELEMENT_SET_NO": 999, "REV_AT_EPOCH": 144, "BSTAR": 0.00026056, "MEAN_MOTION_DOT": 3.604e-05, "MEAN_MOTION_DDOT": 0}, "tle": {"line1": "1 66995U 25292C   25353.72339733  .00003604  00000+0  26056-3 0  9994", "line2": "2 66995  97.6526  66.2080 0014002 247.1937 112.7810 15.04610889  1445"}}, "geometry": {"type": "Point", "coordinates": [-102.16201605303348, 55.79727873556424]}}]}